IRIDIUM 26              
1 24903U 97043A   25145.41811171  .00000388  00000+0  12415-3 0  9996
2 24903  86.3937 120.1878 0002370  92.4958 267.6511 14.37127257453472
IRIDIUM 22              
1 24907U 97043E   25145.67756350  .00000338  00000+0  10959-3 0  9991
2 24907  86.3943 123.5983 0002373  88.2935 271.8533 14.35942717453530
DUMMY MASS 1            
1 24925U 97048A   25145.46956267  .00000356  00000+0  36681-4 0  9993
2 24925  86.3341 145.8329 0005127 208.4565 151.6380 14.86968368501757
DUMMY MASS 2            
1 24926U 97048B   25145.42792279  .00000357  00000+0  36954-4 0  9995
2 24926  86.3342 147.4545 0005491 225.8768 134.2006 14.86720870501520
IRIDIUM 29              
1 24944U 97051A   25145.77810454  .00000399  00000+0  12955-3 0  9993
2 24944  86.3962 153.2952 0002300  85.0452 275.1008 14.36449036450276
IRIDIUM 33              
1 24946U 97051C   25145.45643126  .00000279  00000+0  91252-4 0  9995
2 24946  86.3877 152.6883 0009109 139.9652 220.2217 14.34879627449489
IRIDIUM 28              
1 24948U 97051E   25145.41813232  .00000328  00000+0  10337-3 0  9999
2 24948  86.3965 150.9762 0002511 100.1949 259.9531 14.37370674450576
IRIDIUM 36              
1 24967U 97056C   25145.80263122  .00000369  00000+0  11640-3 0  9998
2 24967  86.3998 182.3947 0002595  92.1922 267.9573 14.37592504449009
